{
  "status": "NORMAL",
  "issueTime": {
    "partialTime": "--18T17:50Z"
  },
  "aerodrome": {
    "designator": "EFOU"
  },
  "automatedStation": true,
  "surfaceWind": {
    "meanWindDirection": {
      "value": 180.0,
      "uom": "deg"
    },
    "meanWindSpeed": {
      "value": 7.0,
      "uom": "[kn_i]"
    }
  },
  "visibility": {
    "prevailingVisibility": {
      "value": 10000.0,
      "uom": "m"
    },
    "prevailingVisibilityOperator": "ABOVE"
  },
  "clouds": {
    "layers": [
      {
        "amount": "OVC",
        "base": {
          "value": 1000.0,
          "uom": "[ft_i]"
        }
      }
    ]
  },
  "airTemperature": {
    "value": 2.0,
    "uom": "degC"
  },
  "dewpointTemperature": {
    "value": 1.0,
    "uom": "degC"
  },
  "altimeterSettingQNH": {
    "value": 1015.0,
    "uom": "hPa"
  },
  "runwayStates": [
    {
      "appliedToAllRunways": true,
      "snowClosure": true
    }
  ],
  "translatedTAC": "METAR EFOU 181750Z AUTO 18007KT 9999 OVC010 02/01 Q1015 R/SNOCLO=",
  "translated": true
}