{
  "reportStatus": "NORMAL",
  "issueTime": {
    "partialTime": "--24T06:20Z"
  },
  "aerodrome": {
    "designator": "EFHK"
  },
  "presentWeather": [
    {
      "code": "-SHSN",
      "description": "Light showery precipitation of snow"
    }
  ],
  "airTemperature": {
    "value": -2.0,
    "uom": "degC"
  },
  "dewpointTemperature": {
    "value": -3.0,
    "uom": "degC"
  },
  "altimeterSettingQNH": {
    "value": 1032.0,
    "uom": "hPa"
  },
  "surfaceWind": {
    "meanWindDirection": {
      "value": 360.0,
      "uom": "deg"
    },
    "meanWindSpeed": {
      "value": 3.0,
      "uom": "[kn_i]"
    },
    "extremeClockwiseWindDirection": {
      "value": 360.0,
      "uom": "deg"
    },
    "extremeCounterClockwiseWindDirection": {
      "value": 300.0,
      "uom": "deg"
    }
  },
  "visibility": {
    "prevailingVisibility": {
      "value": 10000,
      "uom": "m"
    },
    "prevailingVisibilityOperator": "ABOVE"
  },
  "clouds": {
    "layers": [
      {
        "amount": "FEW",
        "base": {
          "value": 2000.0,
          "uom": "[ft_i]"
        },
        "cloudType": "CB"
      },
      {
        "amount": "BKN",
        "base": {
          "value": 3200.0,
          "uom": "[ft_i]"
        }
      }
    ]
  },
  "noSignificantChanges": true,
  "translatedTAC": "METAR EFHK 240620Z 36003KT 300V360 9999 -SHSN FEW020CB BKN032 M02/M03 Q1032 NOSIG=",
  "translated": true
}