{
  "status" : "NORMAL",
  "issueTime" : {
    "partialTime" : "--18T14:20Z"
  },
  "automatedStation" : "true",
  "aerodrome" : {
    "designator" : "EFIV"
  },
  "presentWeather": [
    {
      "code" : "-SN",
      "description" : "Light precipitation of snow"
    }
  ],
  "airTemperature" : {
    "value": -18.0,
    "uom" : "degC"
  },
  "dewpointTemperature" : {
    "value": -20.0,
    "uom" : "degC"
  },
  "altimeterSettingQNH" : {
    "value": 1008.0,
    "uom" : "hPa"
  },
  "surfaceWind" : {
    "meanWindDirection" : {
      "value": 210.0,
      "uom" : "deg"
    },
    "meanWindSpeed" : {
      "value": 11.0,
      "uom" : "[kn_i]"
    }
  },
  "visibility" : {
    "prevailingVisibility" : {
      "value": 10000,
      "uom" : "m"
    },
    "prevailingVisibilityOperator" : "ABOVE"
  },
  "clouds" : {
    "noCloudsDetectedByAutoSystem": true
  },
  "translatedTAC" : "METAR EFIV 181420Z AUTO 21011KT 9999 -SN NCD M18/M20 Q1008=",
  "translated": true
}