{
  "status" : "NORMAL",
  "issueTime" : {
    "partialTime" : "--20T10:04Z"
  },
  "aerodrome" : {
    "designator" : "KORD"
  },
  "automatedStation": false,
  "surfaceWind" : {
    "meanWindDirection" : {
      "value": 50.0,
      "uom" : "deg"
    },
    "meanWindSpeed" : {
      "value": 8.0,
      "uom" : "[kn_i]"
    }
  },
  "visibility" : {
    "prevailingVisibility" : {
      "value": 1.25,
      "uom" : "sm"
    }
  },
  "presentWeather": [
    {
      "code" : "-DZ",
      "description" : "Light precipitation of drizzle"
    },
    {
      "code" : "BR",
      "description" : "Mist"
    }
  ],
  "clouds" : {
    "layers": [
      {
        "amount" : "OVC",
        "base" : {
          "value": 600.0,
          "uom" : "[ft_i]"
        }
      }
    ]
  },
  "airTemperature" : {
    "value": 3.0,
    "uom" : "degC"
  },
  "dewpointTemperature" : {
    "value": 3.0,
    "uom" : "degC"
  },
  "altimeterSettingQNH" : {
    "value": 2964.0,
    "uom" : "in Hg"
  },
  "translatedTAC" : "METAR KORD 201004Z 05008KT 1 1/4SM -DZ BR OVC006 03/03 04/54 A2964=",
  "translated": true
}