{
  "status": "NORMAL",
  "issueTime": {
    "partialTime": "062331Z"
  },
  "aerodrome": {
     "designator": "EFRO"
  },
  "validityTime": {
    "startTime": {
      "partialTime": "0700",
      "partialTimePattern": "DayHour"
    },
    "endTime": {
      "partialTime": "0724",
      "partialTimePattern": "DayHour"
    }
  },
  "baseForecast": {
  	"ceilingAndVisibilityOk": true,
    "surfaceWind": {
	  "variableDirection": false,
	  "meanWindDirection": {
	    "value": 200,
	    "uom": "deg"
	  },
	  "meanWindSpeed": {
	    "value": 9.0,
	    "uom": "[kn_i]"
	  }
	}
  },
  
  "changeForecasts": [
    {
      "changeIndicator": "PROBABILITY_30",
      "periodOfChange": {
        "startTime": {
          "partialTime": "0702",
          "partialTimePattern": "DayHour"
        },
        "endTime": {
          "partialTime": "0706",
          "partialTimePattern": "DayHour"
        }
      },
     "prevailingVisibility": {
	    "value": 1000.0,
	    "uom": "m"
	  },
	  "forecastWeather": [
	    {
          "code": "BCFG",
          "description": "Patches of fog"
	    }
	  ],
	  "cloud": {
	    "layers": [
	      {
	        "amount": "BKN",
            "base": {
              "value": 100.0,
              "uom": "[ft_i]"
            }
	      }
	    ]
	  }
    }
  ],
  "translatedTAC": "TAF EFRO 062331Z 0700/0724 20009KT CAVOK\nPROB30 0702/0706 1000 BCFG BKN001="
}
