{
	"status": "NORMAL",
	"issueTime": {
		"partialTime": "190815Z"
	},
	"aerodrome": {
	    "designator": "EFAB"
	},
	"validityTime": {
		"startTime": {
			"partialTime": "1909",
			"partialTimePattern": "DayHour"
		},
		"endTime": {
			"partialTime": "1915",
			"partialTimePattern": "DayHour"
		}
	},
	"baseForecast": {
	  "surfaceWind": {
	  	"variableDirection": false,
	  	"meanWindDirection": {
	  	  "value": 140.0,
	  	  "uom": "deg"
	  	},
	  	"meanWindSpeed": {
	  	  "value": 8.0,
	  	  "uom": "mps"
	  	},
	  	"windGust": {
	  	  "value": 15.0,
	  	  "uom": "mps"
	  	}
	  },
	  "prevailingVisibility": {
	  	"value": 10000.0,
	  	"uom": "m"
	  },
	  "prevailingVisibilityOperator": "ABOVE",
	  "cloud": {
	    "layers": [
	      {
	        "amount": "BKN",
	      	"base": {
	      	  "value": 1000,
	      	  "uom": "[ft_i]"
	      	}
	      },
	      {
	        "amount": "BKN",
	      	"base": {
	      	  "value": 1500,
	      	  "uom": "[ft_i]"
	      	}
	      }
	    ]
	  }
	},
    "translatedTAC": "TAF EFAB 190815Z 1909/1915 14008G15MPS 9999 BKN010 -RA BKN015="
}